NORAD_CAT_ID,OBJECT_NAME,OBJECT_TYPE,EPOCH,MEAN_MOTION,ECCENTRICITY,INCLINATION,RA_OF_ASC_NODE,ARG_OF_PERICENTER,MEAN_ANOMALY,BSTAR,MEAN_MOTION_DOT,MEAN_MOTION_DDOT,TLE_LINE0,TLE_LINE1,TLE_LINE2,SEMIMAJOR_AXIS,PERIOD,APOGEE,PERIGEE,DECAYED
53806.0,STARLINK-4768,PAYLOAD,2023-05-26 06:43:12,15.08843719,0.0001255,53.2166,140.7865,80.5244,279.589,3.8513e-05,3.25e-06,0.0,0 STARLINK-4768,1 53806U 22111AK  23146.28000385  .00000325  00000-0  38513-4 0  9995,2 53806  53.2166 140.7865 0001255  80.5244 279.5890 15.08843719 40284,6917.869,95.437,540.602,538.866,0.0
53806.0,STARLINK-4768,PAYLOAD,2023-05-27 04:58:36,15.08836702,0.0001309,53.2168,136.6241,82.2445,277.8696,-1.051e-05,-4.55e-06,0.0,0 STARLINK-4768,1 53806U 22111AK  23147.20736946 -.00000455  00000-0 -10510-4 0  9990,2 53806  53.2168 136.6241 0001309  82.2445 277.8696 15.08836702 39614,6917.89,95.438,540.661,538.85,0.0
53806.0,STARLINK-4768,PAYLOAD,2023-05-27 16:06:18,15.08837895,0.0001312,53.2165,134.5395,74.7492,285.3645,4.2737e-06,-2.2e-06,0.0,0 STARLINK-4768,1 53806U 22111AK  23147.67104859 -.00000220  00000-0  42737-5 0  9999,2 53806  53.2165 134.5395 0001312  74.7492 285.3645 15.08837895 40490,6917.887,95.438,540.659,538.844,0.0
53806.0,STARLINK-4768,PAYLOAD,2023-05-28 06:24:46,15.08841663,0.0001275,53.2164,131.8631,80.8766,279.237,3.8277e-05,3.21e-06,0.0,0 STARLINK-4768,1 53806U 22111AK  23148.26720531  .00000321  00000-0  38277-4 0  9990,2 53806  53.2164 131.8631 0001275  80.8766 279.2370 15.08841663 40587,6917.875,95.437,540.622,538.858,0.0
53806.0,STARLINK-4768,PAYLOAD,2023-05-28 08:00:09,15.08842497,0.0001288,53.2165,131.5658,81.529,278.5848,4.5059e-05,4.29e-06,0.0,0 STARLINK-4768,1 53806U 22111AK  23148.33344451  .00000429  00000-0  45059-4 0  9996,2 53806  53.2165 131.5658 0001288  81.5290 278.5848 15.08842497 39786,6917.873,95.437,540.629,538.847,0.0
53806.0,STARLINK-4768,PAYLOAD,2023-05-28 15:57:05,15.08838402,0.0001276,53.2168,130.079,82.4422,277.6715,5.2266e-05,5.44e-06,0.0,0 STARLINK-4768,1 53806U 22111AK  23148.66464694  .00000544  00000-0  52266-4 0  9990,2 53806  53.2168 130.0790 0001276  82.4422 277.6715 15.08838402 40645,6917.885,95.438,540.633,538.868,0.0
53806.0,STARLINK-4768,PAYLOAD,2023-05-29 07:50:56,15.08841528,0.0001296,53.2168,127.1054,82.3581,277.7558,7.8571e-05,9.63e-06,0.0,0 STARLINK-4768,1 53806U 22111AK  23149.32704465  .00000963  00000-0  78571-4 0  9999,2 53806  53.2168 127.1054 0001296  82.3581 277.7558 15.08841528 40742,6917.876,95.437,540.637,538.844,0.0
53806.0,STARLINK-4768,PAYLOAD,2023-05-29 15:47:52,15.08837563,0.0001323,53.217,125.6186,82.064,278.0502,4.2862e-05,3.94e-06,0.0,0 STARLINK-4768,1 53806U 22111AK  23149.65824832  .00000394  00000-0  42862-4 0  9998,2 53806  53.2170 125.6186 0001323  82.0640 278.0502 15.08837563 39989,6917.888,95.438,540.668,538.838,0.0
53806.0,STARLINK-4768,PAYLOAD,2023-05-30 04:30:57,15.0883979,0.000134,53.2166,123.24,83.0685,277.046,2.3891e-05,9.2e-07,0.0,0 STARLINK-4768,1 53806U 22111AK  23150.18816797  .00000092  00000-0  23891-4 0  9995,2 53806  53.2166 123.2400 0001340  83.0685 277.0460 15.08839790 40872,6917.881,95.438,540.673,538.819,0.0
53806.0,STARLINK-4768,PAYLOAD,2023-05-31 04:21:44,15.08842846,0.0001323,53.2174,118.7757,97.28,262.8343,5.1761e-05,5.36e-06,0.0,0 STARLINK-4768,1 53806U 22111AK  23151.18176408  .00000536  00000-0  51761-4 0  9994,2 53806  53.2174 118.7757 0001323  97.2800 262.8343 15.08842846 40218,6917.872,95.437,540.652,538.821,0.0
53806.0,STARLINK-4768,PAYLOAD,2023-05-31 07:32:30,15.08842739,0.0001322,53.2174,118.1812,96.8527,263.2615,4.8966e-05,4.92e-06,0.0,0 STARLINK-4768,1 53806U 22111AK  23151.31424409  .00000492  00000-0  48966-4 0  9990,2 53806  53.2174 118.1812 0001322  96.8527 263.2615 15.08842739 41044,6917.872,95.437,540.652,538.822,0.0
53806.0,STARLINK-4768,PAYLOAD,2023-06-01 02:37:10,15.08820175,0.0001336,53.2168,114.6141,100.8641,259.2502,-8.5453e-05,-1.647e-05,0.0,0 STARLINK-4768,1 53806U 22111AK  23152.10914943 -.00001647  00000-0 -85453-4 0  9992,2 53806  53.2168 114.6141 0001336 100.8641 259.2502 15.08820175 40354,6917.941,95.439,540.73,538.882,0.0
53806.0,STARLINK-4768,PAYLOAD,2023-06-01 07:23:20,15.08822294,0.0001236,53.2167,113.7229,90.7186,269.3948,-6.9561e-05,-1.394e-05,0.0,0 STARLINK-4768,1 53806U 22111AK  23152.30787044 -.00001394  00000-0 -69561-4 0  9995,2 53806  53.2167 113.7229 0001236  90.7186 269.3948 15.08822294 41193,6917.935,95.439,540.655,538.944,0.0
53806.0,STARLINK-4768,PAYLOAD,2023-06-02 02:27:56,15.08840036,0.0001169,53.2165,110.1567,86.8423,273.2703,2.6416e-05,1.33e-06,0.0,0 STARLINK-4768,1 53806U 22111AK  23153.10274280  .00000133  00000-0  26416-4 0  9997,2 53806  53.2165 110.1567 0001169  86.8423 273.2703 15.08840036 40503,6917.88,95.438,540.554,538.937,0.0
53806.0,STARLINK-4768,PAYLOAD,2023-06-02 04:03:19,15.08842841,0.0001162,53.2167,109.8589,87.2682,272.8443,5.5768e-05,6e-06,0.0,0 STARLINK-4768,1 53806U 22111AK  23153.16898074  .00000600  00000-0  55768-4 0  9997,2 53806  53.2167 109.8589 0001162  87.2682 272.8443 15.08842841 41322,6917.872,95.437,540.541,538.933,0.0
53806.0,STARLINK-4768,PAYLOAD,2023-06-03 03:54:06,15.08852969,0.0001187,53.216,105.3983,89.6257,270.4871,0.00040835,6.219e-05,0.0,0 STARLINK-4768,1 53806U 22111AK  23154.16257963  .00006219  00000-0  40835-3 0  9994,2 53806  53.2160 105.3983 0001187  89.6257 270.4871 15.08852969 40662,6917.841,95.437,540.527,538.885,0.0
53806.0,STARLINK-4768,PAYLOAD,2023-06-03 07:04:52,15.08858089,0.0001199,53.2161,104.8031,88.9982,271.1148,0.00047362,7.261e-05,0.0,0 STARLINK-4768,1 53806U 22111AK  23154.29505725  .00007261  00000-0  47362-3 0  9990,2 53806  53.2161 104.8031 0001199  88.9982 271.1148 15.08858089 41497,6917.825,95.436,540.52,538.861,0.0
53806.0,STARLINK-4768,PAYLOAD,2023-06-04 02:09:30,15.08848108,0.0001256,53.2169,101.2331,101.6976,258.4157,8.4591e-06,-1.53e-06,0.0,0 STARLINK-4768,1 53806U 22111AK  23155.08993636 -.00000153  00000-0  84591-5 0  9991,2 53806  53.2169 101.2331 0001256 101.6976 258.4157 15.08848108 40802,6917.856,95.437,540.589,538.852,0.0
53806.0,STARLINK-4768,PAYLOAD,2023-06-04 05:20:16,15.08849427,0.0001086,53.2165,100.6404,93.7599,266.3518,6.2332e-05,7.05e-06,0.0,0 STARLINK-4768,1 53806U 22111AK  23155.22241586  .00000705  00000-0  62332-4 0  9997,2 53806  53.2165 100.6404 0001086  93.7599 266.3518 15.08849427 41631,6917.852,95.437,540.468,538.965,0.0
53806.0,STARLINK-4768,PAYLOAD,2023-06-05 03:35:40,15.08847382,0.0001093,53.217,96.478,96.1317,263.98,7.0442e-05,8.34e-06,0.0,0 STARLINK-4768,1 53806U 22111AK  23156.14977399  .00000834  00000-0  70442-4 0  9991,2 53806  53.2170  96.4780 0001093  96.1317 263.9800 15.08847382 40969,6917.858,95.437,540.479,538.967,0.0
53806.0,STARLINK-4768,PAYLOAD,2023-06-05 13:07:59,15.0884094,0.0001114,53.2171,94.694,92.9242,267.1877,3.9136e-05,3.35e-06,0.0,0 STARLINK-4768,1 53806U 22111AK  23156.54721589  .00000335  00000-0  39136-4 0  9994,2 53806  53.2171  94.6940 0001114  92.9242 267.1877 15.08840940 41833,6917.878,95.437,540.513,538.972,0.0
53806.0,STARLINK-4768,PAYLOAD,2023-06-06 05:01:51,15.08843057,0.0001087,53.2174,91.7203,93.0339,267.0777,8.797e-05,1.113e-05,0.0,0 STARLINK-4768,1 53806U 22111AK  23157.20961807  .00001113  00000-0  87970-4 0  9991,2 53806  53.2174  91.7203 0001087  93.0339 267.0777 15.08843057 41935,6917.871,95.437,540.488,538.984,0.0
53806.0,STARLINK-4768,PAYLOAD,2023-06-07 01:41:51,15.08844878,0.0001035,53.2168,87.8546,106.3156,253.795,0.00012579,1.715e-05,0.0,0 STARLINK-4768,1 53806U 22111AK  23158.07073781  .00001715  00000-0  12579-3 0  9992,2 53806  53.2168  87.8546 0001035 106.3156 253.7950 15.08844878 41254,6917.865,95.437,540.446,539.014,0.0
53806.0,STARLINK-4768,PAYLOAD,2023-06-07 04:52:37,15.08850591,0.0001026,53.217,87.2595,95.6714,264.4395,0.00018649,2.682e-05,0.0,0 STARLINK-4768,1 53806U 22111AK  23158.20321492  .00002682  00000-0  18649-3 0  9990,2 53806  53.2170  87.2595 0001026  95.6714 264.4395 15.08850591 42088,6917.848,95.437,540.423,539.003,0.0
53806.0,STARLINK-4768,PAYLOAD,2023-06-07 22:21:53,15.08833302,0.0001352,53.2183,83.9896,101.2057,258.9087,3.7238e-05,3.05e-06,0.0,0 STARLINK-4768,1 53806U 22111AK  23158.93186531  .00000305  00000-0  37238-4 0  9999,2 53806  53.2183  83.9896 0001352 101.2057 258.9087 15.08833302 41384,6917.901,95.438,540.701,538.831,0.0
53806.0,STARLINK-4768,PAYLOAD,2023-06-08 04:43:25,15.0883986,0.0001087,53.2169,82.7973,92.987,267.1247,9.4191e-05,1.212e-05,0.0,0 STARLINK-4768,1 53806U 22111AK  23159.19682338  .00001212  00000-0  94191-4 0  9993,2 53806  53.2169  82.7973 0001087  92.9870 267.1247 15.08839860 42235,6917.881,95.438,540.498,538.994,0.0
53806.0,STARLINK-4768,PAYLOAD,2023-06-09 01:23:25,15.0885361,0.0001181,53.2178,78.931,90.4902,269.6226,0.00012766,1.745e-05,0.0,0 STARLINK-4768,1 53806U 22111AK  23160.05793633  .00001745  00000-0  12766-3 0  9999,2 53806  53.2178  78.9310 0001181  90.4902 269.6226 15.08853610 41558,6917.839,95.437,540.521,538.887,0.0
53806.0,STARLINK-4768,PAYLOAD,2023-06-10 01:14:13,15.08842101,0.000123,53.2176,74.4754,102.1977,257.9153,8.4969e-05,1.065e-05,0.0,0 STARLINK-4768,1 53806U 22111AK  23161.05154115  .00001065  00000-0  84969-4 0  9996,2 53806  53.2176  74.4754 0001230 102.1977 257.9153 15.08842101 41706,6917.874,95.437,540.59,538.888,0.0
53806.0,STARLINK-4768,PAYLOAD,2023-06-10 10:46:32,15.0884214,0.0001038,53.217,72.6885,92.7987,267.3124,7.0081e-05,8.28e-06,0.0,0 STARLINK-4768,1 53806U 22111AK  23161.44898195  .00000828  00000-0  70081-4 0  9998,2 53806  53.2170  72.6885 0001038  92.7987 267.3124 15.08842140 42578,6917.874,95.437,540.457,539.021,0.0
53806.0,STARLINK-4768,PAYLOAD,2023-06-10 18:43:27,15.08839922,0.0001272,53.2173,71.2018,84.4131,275.7006,-5.3459e-05,-1.139e-05,0.0,0 STARLINK-4768,1 53806U 22111AK  23161.78018291 -.00001139  00000-0 -53459-4 0  9994,2 53806  53.2173  71.2018 0001272  84.4131 275.7006 15.08839922 42625,6917.881,95.438,540.626,538.866,0.0
